NESS                    
1 58020U 23155E   26068.76452457  .00019469  00000+0  74047-3 0  9996
2 58020  97.5941 152.6141 0006891 179.8776 180.2465 15.26794015133307
STARLINK-35719          
1 67183U 25303W   26068.39773203  .00025709  00000+0  93998-3 0  9997
2 67183  43.0006 312.0919 0001636 257.2789 102.7880 15.27598093 12694
